PRC TEST SPACECRAFT 3   
1 58573U 23195A   24012.78982233  .00045370  00000+0  29433-3 0  9991
2 58573  49.9906 110.7132 0020619  82.7633 277.5686 15.75188100  4606
CZ-2F R/B               
1 58574U 23195B   24013.42043147  .00135843  00000+0  59848-3 0  9994
2 58574  49.9852 106.5089 0013541  50.4282 309.7891 15.83427447  4705
CZ-2F DEB               
1 58575U 23195C   24013.41526034  .01555044  99813-3  73674-2 0  9991
2 58575  49.7672 111.4209 0067003 302.7753  56.6778 15.79047827  4630
CZ-2F DEB               
1 58577U 23195E   23362.72052071  .00318244  00000+0  49462-2 0  9990
2 58577  49.8244 195.7594 0168357 208.5542 205.5131 15.38013099  2133
QPS-SAR-5 (TSUKUYOMI-I) 
1 58578U 23196A   24013.22524574  .00007628  00000+0  67032-3 0  9998
2 58578  42.0181 280.2055 0004503 109.8611 250.2700 14.96793309  4350
ELECTRON KICK STAGE R/B 
1 58579U 23196B   24012.81931768  .00006946  00000+0  60798-3 0  9994
2 58579  42.0196 282.3579 0005582 105.3278 254.8164 14.97038155  4287
YAOGAN-41               
1 58582U 23197A   24012.90813472 -.00000348  00000+0  00000+0 0  9997
2 58582   4.9381 307.7532 0013032 170.8180  83.4391  1.00266217   436
CZ-5 R/B                
1 58583U 23197B   24012.22214316  .00002885  00000+0  13926-2 0  9996
2 58583  19.0193 298.7947 7175673 199.6543 104.2508  2.39944376   673
2023-198A               
1 58584U 23198A   24008.31627196  .00000077  00000+0  00000+0 0  9994
2 58584  63.2864 255.1512 7065377 269.9528 258.0433  2.00532657   441
2023-198B               
1 58585U 23198B   24011.06340308 -.00001116  00000+0  00000+0 0  9994
2 58585  63.2897 254.7222 7101147 269.8096  16.3251  1.99058632   521
2023-199A               
1 58586U 23199A   24013.46836857  .00016019  00000+0  67311-3 0  9990
2 58586  97.4059 132.4866 0011647 157.1751 203.0006 15.23451006  4130
2023-199B               
1 58587U 23199B   24013.46669436  .00113707  60133-5  57365-3 0  9997
2 58587  97.6948 135.2906 0153189 269.8830  88.4875 15.66431155  4244
STARLINK-31044          
1 58589U 23200A   24013.58335648 -.02209797  00000+0 -71076-1 0  9993
2 58589  43.0007 131.9139 0001438 268.6362 101.0471 15.35015032  5247
STARLINK-31062          
1 58590U 23200B   24013.58335648 -.00032721  00000+0 -12456-2 0  9992
2 58590  43.0003 132.4419 0001036 255.0801 257.3751 15.25936521  5244
STARLINK-31043          
1 58591U 23200C   24013.58335648 -.00124528  00000+0 -48218-2 0  9995
2 58591  43.0004 132.4114 0002055 254.5869 270.3236 15.25974205  5242
STARLINK-31096          
1 58592U 23200D   24013.58335648  .00110064  00000+0  41647-2 0  9993
2 58592  43.0004 132.3818 0001194 276.9623 260.3358 15.25831708  5246
STARLINK-31094          
1 58593U 23200E   24013.58335648 -.00029918  00000+0 -11367-2 0  9999
2 58593  43.0004 132.3515 0001747 268.1057 281.7501 15.25961345  5247
STARLINK-31075          
1 58594U 23200F   24013.58335648  .00026899  00000+0  10353-2 0  9997
2 58594  43.0003 132.3211 0001767 278.1158 284.1359 15.25881015  5248
STARLINK-30857          
1 58595U 23200G   24013.58335648 -.00242086  00000+0 -95113-2 0  9995
2 58595  43.0004 132.2611 0001488 274.1791 312.9010 15.26049660  5249
STARLINK-31059          
1 58596U 23200H   24012.91667824  .00052499  00000+0  10164-2 0  9994
2 58596  43.0014 135.5951 0001786 280.8011  52.3656 15.46939914  5203
STARLINK-31087          
1 58597U 23200J   24013.25002315 -.02167451  00000+0 -83272-1 0  9999
2 58597  43.0006 134.0860 0001190 252.7857 321.5074 15.29335646  5076
STARLINK-31079          
1 58598U 23200K   24013.58335648 -.02201507  00000+0 -87120-1 0  9991
2 58598  43.0005 132.1764 0001235 254.2396   7.7976 15.28439844  5240
STARLINK-31072          
1 58599U 23200L   24013.58335648 -.02204112  00000+0 -84821-1 0  9992
2 58599  43.0004 131.4084 0001238 264.9515 306.0566 15.29344332  5250
STARLINK-31052          
1 58600U 23200M   24013.58335648 -.02201869  00000+0 -85496-1 0  9990
2 58600  43.0006 132.1493 0001390 272.7905   0.3674 15.29051532  5246
STARLINK-31074          
1 58601U 23200N   24013.58335648 -.02200216  00000+0 -83699-1 0  9999
2 58601  43.0006 132.1231 0001273 262.6043  21.2535 15.29708139  5248
STARLINK-31071          
1 58602U 23200P   24011.66667824  .00068824  00000+0  12403-2 0  9990
2 58602  43.0009 141.8376 0001821 239.8028  17.1938 15.48894106  4855
STARLINK-31080          
1 58603U 23200Q   24013.58335648 -.02200697  00000+0 -82137-1 0  9990
2 58603  43.0007 132.0976 0001313 264.9079  29.4785 15.30318595  4965
STARLINK-31088          
1 58604U 23200R   24013.25002315 -.02167645  00000+0 -76685-1 0  9993
2 58604  43.0006 133.6187 0001427 268.2053 135.5866 15.31964448  5191
STARLINK-31038          
1 58605U 23200S   24013.58335648 -.02202864  00000+0 -77259-1 0  9999
2 58605  43.0006 132.0267 0001700 271.5645  52.0018 15.32294066  5243
STARLINK-31082          
1 58606U 23200T   24013.58335648 -.02203623  00000+0 -78922-1 0  9992
2 58606  43.0008 132.0497 0001264 266.2249  47.9469 15.31636512  5245
STARLINK-31069          
1 58607U 23200U   24013.58335648 -.02205025  00000+0 -75747-1 0  9993
2 58607  43.0007 132.0047 0001419 268.2220  64.4081 15.32953199  5247
STARLINK-31067          
1 58608U 23200V   24013.58335648 -.02204958  00000+0 -74173-1 0  9990
2 58608  43.0007 131.9835 0001379 275.4822  65.8796 15.33610890  5241
STARLINK-31085          
1 58609U 23200W   24013.58335648 -.02209558  00000+0 -72902-1 0  9990
2 58609  43.0007 131.9624 0001230 271.5393  78.5250 15.34224460  5256
STARLINK-31089          
1 58610U 23200X   24013.58335648 -.02208890  00000+0 -75254-1 0  9993
2 58610  43.0005 130.9568 0001463 272.8450 121.3309 15.33219172  5264
STARLINK-31061          
1 58611U 23200Y   24013.58335648 -.02207451  00000+0 -71298-1 0  9990
2 58611  43.0008 131.9415 0001487 272.0246  86.1328 15.34881136  5244
BEAK                    
1 58612U 98067WD  24013.33852282  .00057960  00000+0  88717-3 0  9995
2 58612  51.6406   7.0820 0005930  75.8723 284.2926 15.53776905  4119
CLARK SAT-1 (AMBITIOUS) 
1 58613U 98067WE  24013.39120661  .00105415  00000+0  15037-2 0  9994
2 58613  51.6401   6.6840 0007544  94.6398 265.5455 15.55429327  4093
COSMOS 2573             
1 58614U 23201A   24013.48176604  .00006936  00000+0  31373-3 0  9991
2 58614  97.5599 300.8594 0011110 217.2562 142.7904 15.21190452  3536
SL-4 R/B                
1 58615U 23201B   24012.74708523  .00069342  00000+0  86944-3 0  9995
2 58615  97.5678 300.9939 0110931 347.3687  12.4789 15.52354901  3475
TANTRUM (TYVAK-1015)    
1 58616U 23202A   24013.29386040  .00414390 -94880-5  58064-3 0  9999
2 58616 140.0170 136.0116 0182524 323.6591  35.1973 15.80294105  3398
FIREFLY ALPHA R/B       
1 58617U 23202B   24013.19917636  .01335329 -99541-5  99932-3 0  9993
2 58617 140.0178 136.8214 0132721 325.1076  34.1122 15.97963184  3396
STARLINK-31054          
1 58619U 23203B   24013.25002315 -.01742376  00000+0 -30936-1 0  9990
2 58619  43.0012 183.7501 0001593 256.7466   4.9287 15.52647755  4450
STARLINK-31118          
1 58620U 23203C   24013.25002315 -.01741888  00000+0 -30927-1 0  9999
2 58620  43.0012 183.7480 0001706 257.7653   4.7583 15.52646040  4579
STARLINK-31134          
1 58621U 23203D   24013.25002315 -.01741648  00000+0 -30931-1 0  9999
2 58621  43.0012 183.7393 0001594 262.6152   3.3028 15.52639332  4516
STARLINK-31133          
1 58622U 23203E   24013.25002315 -.01744715  00000+0 -30984-1 0  9996
2 58622  43.0013 183.7461 0001740 263.1903   0.1823 15.52645087  3338
STARLINK-31068          
1 58623U 23203F   24013.50001157 -.01720657  00000+0 -31578-1 0  9997
2 58623  43.0010 182.2797 0001314 253.0463 329.7235 15.51699207  4552
STARLINK-31129          
1 58624U 23203G   24013.25002315 -.01738059  00000+0 -30859-1 0  9993
2 58624  43.0012 183.7421 0001734 261.3568   3.7134 15.52638484  4513
STARLINK-30774          
1 58625U 23203H   24013.25002315 -.01740819  00000+0 -30920-1 0  9990
2 58625  43.0013 183.7343 0001512 260.0463   7.5693 15.52635228  4573
STARLINK-31086          
1 58626U 23203J   24013.25002315 -.01741227  00000+0 -30925-1 0  9990
2 58626  43.0012 183.7375 0001586 261.4706   5.2961 15.52637299  4566
STARLINK-31065          
1 58627U 23203K   24013.25002315 -.01740179  00000+0 -30911-1 0  9991
2 58627  43.0011 183.7301 0001529 257.0197  12.2928 15.52631744  4455
STARLINK-31092          
1 58628U 23203L   24013.25002315 -.01741634  00000+0 -30936-1 0  9996
2 58628  43.0012 183.7322 0001623 264.2673   4.1961 15.52634385  4512
STARLINK-31091          
1 58629U 23203M   24013.25002315 -.01739349  00000+0 -30898-1 0  9994
2 58629  43.0012 183.7278 0001453 256.7816  13.3799 15.52629340  4403
STARLINK-31084          
1 58630U 23203N   24013.25002315 -.01740389  00000+0 -30918-1 0  9995
2 58630  43.0013 183.7256 0001597 259.9206  11.0889 15.52628613  4574
STARLINK-31064          
1 58631U 23203P   24013.25002315 -.01740826  00000+0 -30930-1 0  9996
2 58631  43.0013 183.7210 0001624 263.1506   9.5559 15.52625432  4512
STARLINK-31081          
1 58632U 23203Q   24013.25002315 -.01740701  00000+0 -30930-1 0  9999
2 58632  43.0011 183.7192 0001587 262.2518  11.3036 15.52623584  4518
STARLINK-31022          
1 58633U 23203R   24013.25002315 -.01740489  00000+0 -30923-1 0  9995
2 58633  43.0013 183.7231 0001513 261.4810  10.3776 15.52626739  4560
STARLINK-31025          
1 58634U 23203S   24013.25002315 -.01652814  00000+0 -19748-1 0  9992
2 58634  43.0011 182.5589 0001708 271.2141 108.0730 15.63408020  4584
STARLINK-31018          
1 58635U 23203T   24013.58335648 -.00654129  00000+0 -12646-1 0  9997
2 58635  43.0009 181.8936 0001285 261.1385  25.7837 15.49359284  4627
STARLINK-31008          
1 58636U 23203U   24013.58335648 -.01331356  00000+0 -26040-1 0  9996
2 58636  43.0010 181.8963 0001449 261.9281  24.0697 15.49629088  4623
STARLINK-31077          
1 58637U 23203V   24013.58335648 -.00600205  00000+0 -11537-1 0  9993
2 58637  43.0011 181.8919 0001593 270.8299  16.9683 15.49323783  4565
STARLINK-31078          
1 58638U 23203W   24013.58335648 -.00563214  00000+0 -10796-1 0  9998
2 58638  43.0009 181.8896 0001959 262.9659  25.7220 15.49265783  4622
STARLINK-31070          
1 58639U 23203X   24013.58335648 -.00466140  00000+0 -88409-2 0  9996
2 58639  43.0011 181.8843 0002046 264.8847  25.5534 15.49214209  4629
STARLINK-31090          
1 58640U 23203Y   24012.00001157  .00163474  00000+0  18347-2 0  9995
2 58640  43.0006 191.1465 0000659 329.9316 110.7524 15.61353553  4436
TIANMU-1 11             
1 58645U 23205A   24013.45237898  .00005673  00000+0  31768-3 0  9994
2 58645  97.4192  42.5659 0010744 203.6247 156.4493 15.13765508  2941
TIANMU-1 12             
1 58646U 23205B   24013.45476078  .00005730  00000+0  32199-3 0  9993
2 58646  97.4177  42.5590 0010061 200.6176 159.4651 15.13642389  2938
TIANMU-1 13             
1 58647U 23205C   24013.45885019  .00005255  00000+0  30051-3 0  9990
2 58647  97.4208  42.5616 0010054 191.6644 168.4356 15.13052525  2933
TIANMU-1 14             
1 58648U 23205D   24013.45522979  .00005684  00000+0  31963-3 0  9993
2 58648  97.4133  42.5465 0010532 195.9757 164.1144 15.13616257  2932
KZ-1A R/B               
1 58649U 23205E   24013.04592221  .00430757  60711-4  10340-2 0  9994
2 58649  97.4080  43.7287 0176975 326.1411  32.8652 15.74841116  2978
SHIYAN 24C 01           
1 58650U 23206A   24013.44929814  .00004812  00000+0  32854-3 0  9997
2 58650  97.3338  21.6098 0010831 202.7416 157.3333 15.06585378  2780
SHIYAN 24C 02           
1 58651U 23206B   24013.44843606  .00004145  00000+0  28365-3 0  9993
2 58651  97.3340  21.6115 0009267 226.0241 134.0224 15.06585262  2783
SHIYAN 24C 03           
1 58652U 23206C   24013.44895280  .00003211  00000+0  22091-3 0  9992
2 58652  97.3335  21.6091 0011019 223.6792 136.3565 15.06528673  2778
CZ-11 R/B               
1 58653U 23206D   24012.07196299  .01560950  23108-5  41964-3 0  9994
2 58653  97.1786  21.6752 0193347 270.6142  87.3007 15.95837142  2696
BEIDOU-3 M25            
1 58654U 23207A   24010.60278281 -.00000020  00000+0  00000+0 0  9994
2 58654  54.9818  92.4790 0117519 178.9635 181.0945  1.82957602   298
BEIDOU-3 M26            
1 58655U 23207B   24005.84694770 -.00000037  00000+0  00000+0 0  9998
2 58655  54.6471  92.7627 0316732  68.9835  87.0455  1.85607573   193
YZ-1 R/B                
1 58656U 23207C   24012.59110386 -.00000020  00000+0  00000+0 0  9997
2 58656  55.0404  92.2547 0027687 330.2354  29.6534  1.79266717   318
CZ-3B R/B               
1 58657U 23207D   24012.47888272  .00068756  00000+0  23711-2 0  9997
2 58657  54.9596  83.3831 5795801 175.7228 193.1804  4.42876479   775
COSMOS 2574             
1 58658U 23209A   24013.47546268  .00030305  00000+0  22940-3 0  9990
2 58658  96.7555 272.1605 0005773 346.0337  14.0768 15.72332594  2708
SL-4 R/B                
1 58659U 23209B   24012.69975637  .00075971  00000+0  53056-3 0  9990
2 58659  96.7592 271.4548 0002998 339.6535  20.4611 15.74069926  2562
TIANMU-1 19             
1 58660U 23208A   24013.31683424  .00014270  00000+0  79131-3 0  9998
2 58660  97.4009 129.9898 0010948 189.5180 170.5846 15.13829915  2586
TIANMU-1 20             
1 58661U 23208B   24013.44666066  .00007948  00000+0  43969-3 0  9990
2 58661  97.3932 130.1031 0010759 193.8710 166.2228 15.14072540  2605
TIANMU-1 21             
1 58662U 23208C   24013.44553771  .00008375  00000+0  46183-3 0  9995
2 58662  97.3978 130.1153 0009860 194.2206 165.8750 15.14177929  2609
TIANMU-1 22             
1 58663U 23208D   24013.44185625  .00007935  00000+0  43386-3 0  9998
2 58663  97.3992 130.1234 0010216 203.4797 156.5970 15.14497499  2609
STARLINK-31113          
1 58668U 23211B   24012.91667824 -.01643171  00000+0 -12597-1 0  9993
2 58668  42.9993 204.1079 0001890 267.5570 324.9815 15.74026467  3483
STARLINK-31128          
1 58669U 23211C   24013.58335648 -.01733932  00000+0 -14793-1 0  9999
2 58669  42.9999 200.0564 0001825 275.4087 144.5553 15.71721852  3351
STARLINK-31083          
1 58670U 23211D   24013.58335648 -.01733974  00000+0 -14781-1 0  9994
2 58670  43.0002 200.0819 0001879 273.2381 137.0336 15.71740800  3478
STARLINK-30828          
1 58671U 23211E   24013.58335648 -.01729415  00000+0 -14742-1 0  9997
2 58671  43.0000 200.0790 0001555 262.9327 148.2216 15.71736282  3099
STARLINK-31104          
1 58672U 23211F   24013.25002315 -.01589563  00000+0 -12799-1 0  9992
2 58672  43.0003 202.0961 0001742 278.5268  41.9215 15.72803817  3515
STARLINK-31131          
1 58673U 23211G   24013.58335648  .00089807  00000+0  33627-3 0  9995
2 58673  42.9985 199.4873 0003812 282.4225   3.9589 15.86882472  3578
STARLINK-31124          
1 58674U 23211H   24012.91667824 -.01649410  00000+0 -12647-1 0  9998
2 58674  42.9998 204.1071 0001653 275.7226 317.7188 15.74036272  3380
STARLINK-31126          
1 58675U 23211J   24013.58335648 -.01727144  00000+0 -15779-1 0  9999
2 58675  43.0002 199.9243 0001520 282.5655 190.2848 15.70103218  3474
STARLINK-31066          
1 58676U 23211K   24013.58335648  .00067379  00000+0  46273-3 0  9999
2 58676  42.9997 199.6481 0002298 250.2541 332.4866 15.73781781  3577
STARLINK-31058          
1 58677U 23211L   24012.91667824 -.01694937  00000+0 -13017-1 0  9997
2 58677  42.9997 204.1006 0001674 257.9451 338.0732 15.74080467  3381
STARLINK-31125          
1 58678U 23211M   24013.25002315 -.01744050  00000+0 -14106-1 0  9996
2 58678  43.0001 202.0780 0001774 279.9660  47.3824 15.72979646  3413
STARLINK-31110          
1 58679U 23211N   24012.91667824 -.01673252  00000+0 -12845-1 0  9994
2 58679  42.9998 204.0958 0001509 258.2280 339.5817 15.74053250  3481
STARLINK-31112          
1 58680U 23211P   24013.58335648 -.01733448  00000+0 -14787-1 0  9997
2 58680  43.0003 200.0593 0001877 275.6621 143.4207 15.71723296  3467
STARLINK-31147          
1 58681U 23211Q   24013.58335648 -.01731572  00000+0 -14769-1 0  9994
2 58681  43.0004 200.0617 0001813 278.9277 139.2746 15.71723710  3562
STARLINK-31144          
1 58682U 23211R   24013.58335648 -.01731990  00000+0 -14779-1 0  9990
2 58682  43.0003 200.0525 0001563 277.9105 143.8167 15.71717212  3569
STARLINK-31095          
1 58683U 23211S   24013.25002315 -.01749619  00000+0 -14160-1 0  9998
2 58683  43.0009 202.0676 0001875 278.5869  53.1770 15.72974096  3519
STARLINK-31107          
1 58684U 23211T   24013.58335648 -.01730290  00000+0 -14767-1 0  9991
2 58684  43.0007 200.0463 0001561 282.5933 141.7782 15.71710123  3468
STARLINK-31121          
1 58685U 23211U   24013.58335648 -.01729588  00000+0 -14763-1 0  9996
2 58685  43.0006 200.0391 0001622 281.3644 145.6505 15.71704959  3479
STARLINK-31137          
1 58686U 23211V   24013.58335648 -.01729483  00000+0 -14757-1 0  9994
2 58686  43.0007 200.0484 0001678 280.8459 142.6441 15.71712189  3563
STARLINK-31109          
1 58687U 23211W   24013.58335648 -.01730525  00000+0 -14768-1 0  9996
2 58687  43.0008 200.0418 0002076 273.0861 153.0483 15.71706094  3566
STARLINK-31139          
1 58688U 23211X   24013.58335648 -.01732474  00000+0 -14790-1 0  9997
2 58688  43.0008 200.0446 0001281 277.2232 148.0285 15.71710435  3561
STARLINK-31106          
1 58689U 23211Y   24013.58335648 -.01724294  00000+0 -14701-1 0  9991
2 58689  43.0007 200.0512 0002699 272.5192 150.0933 15.71708646  3465
HULIANWANG JISHU SHIYAN*
1 58691U 23212A   24013.46645338  .00000047  00000+0  16351-3 0  9997
2 58691  50.0023  11.6957 0007705 350.1993   9.8753 13.86990268  2016
HULIANWANG JISHU SHIYAN*
1 58692U 23212B   24013.46052728  .00000018  00000+0  13826-3 0  9995
2 58692  49.9992  11.6623 0004724 336.1684  23.8994 13.86963073  2015
HULIANWANG JISHU SHIYAN*
1 58693U 23212C   24013.46345212  .00000024  00000+0  14362-3 0  9992
2 58693  50.0005  11.6788 0006900 332.8256  27.2279 13.86989075  2016
XPOSAT                  
1 58694U 24001A   24001.68468223  .00000628  00000+0  00000+0 0  9999
2 58694   5.9870 115.4463 0010488 359.8378  55.4280 14.74838619    62
POEM-3                  
1 58695U 24001B   24004.74596408  .00097489  00000+0  61795-3 0  9990
2 58695   9.6657  72.7054 0007217  17.8593 342.1874 15.74486494   565
OVZON-3                 
1 58698U 24003A   24004.28146450  .00001417  00000+0  16211-2 0  9990
2 58698  26.9047 295.2985 7794745 180.4102 178.1861  1.65215512    16
FALCON 9 R/B            
1 58699U 24003B   24012.07564449  .00008026  00000+0  47720-2 0  9991
2 58699  26.7355 293.4328 7794792 183.6397 161.9383  1.66245710   148
TIANMU-1 15             
1 58700U 24004A   24013.51398224  .00007774  00000+0  43494-3 0  9995
2 58700  97.4560 197.7281 0010346 226.3948 133.6426 15.13687359  1213
TIANMU-1 16             
1 58701U 24004B   24013.51212328  .00007765  00000+0  42872-3 0  9995
2 58701  97.4486 197.7220 0010532 233.2416 126.7850 15.14159413  1218
TIANMU-1 17             
1 58702U 24004C   24013.44529665  .00007721  00000+0  42457-3 0  9994
2 58702  97.4531 197.6634 0009877 235.8528 124.1767 15.14310543  1199
TIANMU-1 18             
1 58703U 24004D   24013.50931227  .00007505  00000+0  40818-3 0  9992
2 58703  97.4546 197.7325 0010553 245.5343 114.4789 15.14706620  1203
KZ-1A R/B               
1 58704U 24004E   24013.05013119  .03506584  25768-5  85787-3 0  9996
2 58704  97.4215 198.0495 0157439   9.5295 113.0726 16.04529659  1186
STARLINK-11072 [DTC]    
1 58705U 24002A   24013.58335648  .00347124  00000+0  26788-2 0  9998
2 58705  53.1626 196.7283 0001750 346.9812 181.4047 15.70359350  2827
STARLINK-11075 [DTC]    
1 58706U 24002B   24013.58335648 -.00744494  00000+0 -65463-2 0  9995
2 58706  53.1629 196.6987 0001234  73.1334 109.5593 15.70303934  2819
STARLINK-11077 [DTC]    
1 58707U 24002C   24013.58335648 -.00080551  00000+0 -66349-3 0  9998
2 58707  53.1602 196.6450 0001174  70.2737 138.2077 15.69817303  2829
STARLINK-11079 [DTC]    
1 58708U 24002D   24013.58335648  .00021135  00000+0  17784-3 0  9999
2 58708  53.1665 196.5903 0001070  96.4997 140.5027 15.69849405  2812
STARLINK-11076 [DTC]    
1 58709U 24002E   24013.58335648 -.01219168  00000+0 -79580-2 0  9999
2 58709  53.1731 196.4144 0001979  65.6898 258.5645 15.77947766  2712
STARLINK-11078 [DTC]    
1 58710U 24002F   24013.58335648 -.01067468  00000+0 -71791-2 0  9991
2 58710  53.1731 196.4187 0000811  79.9618 242.3128 15.76944228  2821
STARLINK-31031          
1 58711U 24002G   24013.25002315 -.01752214  00000+0 -23817-1 0  9993
2 58711  53.1667 198.5795 0000778  88.6922 252.2545 15.60018137  2664
STARLINK-31029          
1 58712U 24002H   24013.25002315 -.01745419  00000+0 -32639-1 0  9995
2 58712  53.1623 198.7874 0000904  82.4221 152.9844 15.51455655  2659
STARLINK-30973          
1 58713U 24002J   24013.25002315 -.01744305  00000+0 -32619-1 0  9997
2 58713  53.1624 198.7859 0000959  88.8811 147.3862 15.51452303  2777
STARLINK-31100          
1 58714U 24002K   24013.25002315 -.01744919  00000+0 -32633-1 0  9995
2 58714  53.1607 198.7823 0001142 102.5843 134.5427 15.51449698  2817
STARLINK-31102          
1 58715U 24002L   24013.25002315 -.01744287  00000+0 -32626-1 0  9996
2 58715  53.1607 198.7810 0000883  83.9488 154.0392 15.51446666  2700
STARLINK-31098          
1 58716U 24002M   24013.58335648 -.01739377  00000+0 -34008-1 0  9991
2 58716  53.1610 197.1816 0001100 110.1362 190.7246 15.50202334  2820
STARLINK-31093          
1 58717U 24002N   24013.25002315 -.01744777  00000+0 -32639-1 0  9996
2 58717  53.1607 198.7772 0001200 104.3727 135.3354 15.51441545  2652
STARLINK-31097          
1 58718U 24002P   24013.25002315 -.01743926  00000+0 -32628-1 0  9990
2 58718  53.1609 198.7756 0000893  87.0378 153.5316 15.51438449  2775
STARLINK-31051          
1 58719U 24002Q   24013.25002315 -.01745402  00000+0 -32659-1 0  9996
2 58719  53.1609 198.7743 0001116 101.4629 139.9661 15.51436469  2659
STARLINK-31027          
1 58720U 24002R   24013.25002315 -.01745020  00000+0 -32655-1 0  9990
2 58720  53.1611 198.7724 0001023 103.9746 138.3143 15.51433888  2657
STARLINK-30972          
1 58721U 24002S   24013.25002315 -.01743663  00000+0 -32632-1 0  9997
2 58721  53.1607 198.7701 0000893  88.5178 154.6327 15.51430355  2773
STARLINK-31040          
1 58722U 24002T   24013.25002315 -.01745059  00000+0 -32662-1 0  9992
2 58722  53.1611 198.7688 0001064  99.4882 144.5220 15.51428287  2778
STARLINK-31033          
1 58723U 24002U   24013.25002315 -.01748410  00000+0 -25656-1 0  9992
2 58723  53.1670 198.5178 0000662  93.7661 277.5512 15.58012305  2656
STARLINK-30893          
1 58724U 24002V   24013.25002315 -.01744618  00000+0 -32660-1 0  9992
2 58724  53.1609 198.7657 0001004  88.2473 157.4846 15.51422649  2659
STARLINK-30856          
1 58725U 24002W   24013.25002315 -.01742632  00000+0 -34134-1 0  9995
2 58725  53.1617 198.8118 0000930  86.7307 137.8931 15.50159120  2655
PEREGRINE               
1 58751U 24006A   24020.54375252 -.00048350  00000+0  00000+0 0  9998
2 58751  28.9006  21.2554 9502498 261.2625 359.1123  0.07069907    16
VULCAN CENTAUR R/B      
1 58752U 24006B   24008.31572917  .00000148  00000+0  00000+0 0  9999
2 58752  30.0000  29.8668 0004000 321.7000 177.4980 15.23529836    08
EINSTEIN PROBE          
1 58753U 24007A   24013.48846532  .00004287  00000+0  38896-3 0  9998
2 58753  28.9961 179.1705 0011140 332.9807  27.0209 14.93071968   631
CZ-2C R/B               
1 58754U 24007B   24013.49636488  .00010268  00000+0  45690-3 0  9993
2 58754  29.0149 178.2400 0113874  28.0854 332.5835 15.14088300   592
TIANXING-1 02           
1 58756U 24008A   24013.48125341  .00113177  00000+0  61264-3 0  9994
2 58756  95.1296  86.9196 0025420 186.8936 173.1991 15.79284822   377
KZ-1A R/B               
1 58757U 24008B   24013.52054635  .05073486  15015-5  39274-3 0  9994
2 58757  95.1477  87.1006 0109337 331.2265 136.3508 16.20623287   388
YUNYAO-1 18             
1 58758U 24009A   24013.50058724  .00024130  00000+0  93548-3 0  9990
2 58758  49.9886 160.7091 0014165 295.9001  64.0495 15.25871323   348
YUNYAO-1 19             
1 58759U 24009B   24013.50063144  .00023978  00000+0  93063-3 0  9994
2 58759  49.9823 160.7115 0013843 296.2614  63.6919 15.25842055   350
YUNYAO-1 20             
1 58760U 24009C   24013.50050370  .00024092  00000+0  93250-3 0  9999
2 58760  49.9887 160.7085 0013913 298.2499  61.7052 15.25929241   359
GRAVITY-1 R/B           
1 58761U 24009D   24013.51406444  .00061158  11273-4  38199-3 0  9992
2 58761  49.8522 159.9988 0163619 350.2975   9.4845 15.60758399   367
