ATLAS CENTAUR 2         
1 00694U 63047A   24012.94867667  .00004629  00000+0  58252-3 0  9996
2 00694  30.3543 255.2942 0569895  13.6589 347.8756 14.06461517 20537
THOR AGENA D R/B        
1 00733U 64002A   24012.87215682  .00000620  00000+0  24237-3 0  9991
2 00733  99.0534 335.0941 0034048  30.6826 329.6338 14.33017033125562
SL-3 R/B                
1 00877U 64053B   24012.67313286  .00000870  00000+0  19684-3 0  9990
2 00877  65.0774 116.3943 0081502 252.3060 106.9130 14.60119476151831
SL-8 R/B                
1 02802U 67045B   24012.46537768  .00000591  00000+0  17483-3 0  9999
2 02802  74.0121  17.0372 0066551 215.1360 144.5400 14.44465027975343
SL-8 R/B                
1 03230U 68040B   24013.45652545  .00004717  00000+0  43383-3 0  9994
2 03230  74.0356 110.1201 0026496 143.4397 216.8603 14.94803812993422
OAO 2                   
1 03597U 68110A   24013.17533106  .00000509  00000+0  14515-3 0  9998
2 03597  34.9949 333.6885 0005459   7.3079 352.7690 14.46389576905604
ISIS 1                  
1 03669U 69009A   24013.13391317  .00000322  00000+0  23265-3 0  9993
2 03669  88.4255 241.4498 1708805 236.4804 106.1416 11.29823836260028
SERT 2                  
1 04327U 70009A   24012.92711372  .00000007  00000+0  64634-4 0  9996
2 04327  99.1663 352.4190 0005296  26.1445  28.6200 13.58592130673056
SL-3 R/B                
1 04814U 70113B   24013.11738680  .00107793  00000+0  66854-3 0  9991
2 04814  81.1248   9.8454 0010984  66.3118 293.9294 15.76600220903841
SL-3 R/B                
1 05118U 71028B   24012.91464932  .00010900  00000+0  43074-3 0  9990
2 05118  81.2519 272.0592 0038615 137.4579 222.9658 15.24665741867601
ASTEX 1                 
1 05560U 71089A   24013.25147144  .00000900  00000+0  23715-3 0  9998
2 05560  92.7202 257.4838 0014633 211.7244 148.3081 14.49088506748622
SL-8 R/B                
1 05730U 71119B   24012.95253130  .00007138  00000+0  42549-3 0  9996
2 05730  73.8924 185.1074 0628218 311.6670  43.2281 14.18464830543143
COSMOS 482 DESCENT CRAFT
1 06073U 72023E   24013.21830492  .00072303  73716-5  15904-3 0  9995
2 06073  52.0104 286.0521 0828427 301.2491  50.9838 14.32213682679046
OAO 3 (COPERNICUS)      
1 06153U 72065A   24012.72120596  .00000743  00000+0  16123-3 0  9995
2 06153  35.0066  96.8543 0007103 212.3391 296.6126 14.58699321731162
ATLAS CENTAUR R/B       
1 06155U 72065B   24012.94895204  .00001672  00000+0  25246-3 0  9994
2 06155  35.0017 223.3897 0036619 247.8336 111.8475 14.73756880724961
SL-8 R/B                
1 08459U 75112B   24012.50758244  .00000424  00000+0  15068-3 0  9998
2 08459  74.0614  26.0601 0017029 310.8156  49.1520 14.37318617518734
SL-3 R/B                
1 10114U 77057B   24013.14501112  .00008723  00000+0  35105-3 0  9994
2 10114  97.4853 156.9084 0010836 204.1607 155.9124 15.25075217547891
SEASAT 1                
1 10967U 78064A   24012.65567732  .00000674  00000+0  23338-3 0  9996
2 10967 107.9942 276.3224 0002963 279.3810  80.7000 14.44694859392781
METEOR 1-29             
1 11251U 79005A   24013.04581279  .00158207  11205-4  57488-3 0  9998
2 11251  97.7345  43.6196 0006740  84.9773 275.2267 15.88499472  9884
SL-14 R/B               
1 11267U 79011B   24012.81491872  .00001199  00000+0  12126-3 0  9998
2 11267  82.5259 122.1158 0017099 158.8646 201.3283 14.90062593411525
SL-8 R/B                
1 11574U 79089B   24013.39089151  .00000581  00000+0  18709-3 0  9998
2 11574  74.0695 105.4899 0014576 120.1577 240.1025 14.41374349322970
SL-14 R/B               
1 11672U 80005B   24012.91627079  .00001139  00000+0  11809-3 0  9995
2 11672  82.5163 332.4947 0014600 264.2324  95.7229 14.89091714359320
SL-8 R/B                
1 12139U 81003B   24012.83817033  .00022566  00000+0  88724-3 0  9992
2 12139  82.9431 279.0219 0382875 326.9485  30.8307 14.77614635197221
SL-3 R/B                
1 12465U 81046B   24013.15068553  .00010216  00000+0  43890-3 0  9996
2 12465  81.2410 138.9757 0028964 198.9873 161.0282 15.22171961331114
METEOR PRIRODA          
1 12585U 81065A   24013.49781732  .00014274  00000+0  42990-3 0  9996
2 12585  97.5622  38.3897 0009058 271.1902  88.8302 15.34415215327828
SL-3 R/B                
1 12904U 81103B   24012.90987962  .00005391  00000+0  32244-3 0  9993
2 12904  81.1598  48.7055 0023229  60.4163 299.9373 15.10663424854020
SL-3 R/B                
1 13068U 82013B   24013.46116191  .00005054  00000+0  28973-3 0  9996
2 13068  81.1796 355.5117 0025628 295.9634  63.8952 15.12137057285392
SL-3 R/B                
1 13154U 82039B   24012.91189689  .00003268  00000+0  24020-3 0  9995
2 13154  81.1809  36.2044 0037426  27.6771 332.6431 15.02606369263173
SL-3 R/B                
1 13403U 82079B   24012.90032155  .00005110  00000+0  28838-3 0  9999
2 13403  81.1509  33.4895 0030025 286.7440  73.0492 15.12589096258275
COSMOS 1408             
1 13552U 82092A   24012.56956617  .00027997  00000+0  46877-3 0  9999
2 13552  82.5624  45.6902 0017902 187.7534 172.3444 15.51527867121102
SL-14 R/B               
1 13553U 82092B   24013.48251267  .00000970  00000+0  11016-3 0  9990
2 13553  82.5695 156.0750 0021633  30.2738  35.5135 14.85142702233257
SL-3 R/B                
1 13819U 83010B   24013.04577786  .00007633  00000+0  31149-3 0  9997
2 13819  81.1103 229.0518 0024915 231.6099 128.2897 15.23989241237661
COSMOS 1455             
1 14032U 83037A   24012.68078012  .00014960  00000+0  48768-3 0  9997
2 14032  82.5075 226.2006 0011687 181.3323 178.7889 15.31622969225754
SL-3 R/B                
1 14208U 83075B   24013.50858040  .00007174  00000+0  34326-3 0  9997
2 14208  97.5532 352.4010 0034642 118.8419 241.6300 15.18745005210379
COSMOS 1500             
1 14372U 83099A   24013.13748956  .00018954  00000+0  58385-3 0  9997
2 14372  82.5113 119.7100 0009721 343.7937  16.2993 15.33455202202625
COSMOS 1536             
1 14699U 84013A   24012.91006691  .00005889  00000+0  35020-3 0  9998
2 14699  82.5508 161.6521 0019533 134.7577 225.5247 15.10920092153326
COSMOS 1544             
1 14819U 84027A   24013.30141793  .00052234  00000+0  74441-3 0  9990
2 14819  82.4711 114.3645 0007743 172.4889 187.6482 15.56070496183193
SL-14 R/B               
1 14820U 84027B   24012.77606450  .00000751  00000+0  85956-4 0  9999
2 14820  82.5419 262.1850 0019870  59.4758 300.8416 14.84516452130829
SL-8 R/B                
1 15483U 85006B   24012.92006705  .00000405  00000+0  14539-3 0  9991
2 15483  74.0455 267.8940 0018169  13.6205  67.4710 14.36895910 40988
COSMOS 1626             
1 15494U 85009A   24012.99378609  .00028809  00000+0  65276-3 0  9990
2 15494  82.4714 353.0793 0001611 107.0907 253.0516 15.42952254134979
SL-12 R/B(2)            
1 15772U 85042D   24012.98363722  .00000170  00000+0  98517-4 0  9991
2 15772  71.1090 309.2773 0037838 269.8358 159.7648 14.21546305  2578
SL-14 R/B               
1 15945U 85069B   24012.58889220  .00000784  00000+0  89132-4 0  9998
2 15945  82.5261  44.2649 0017736 278.1869  81.7335 14.84927014 77061
SL-16 R/B               
1 16182U 85097B   24013.17041170 -.00000137  00000+0 -45069-4 0  9998
2 16182  71.0035 356.1431 0007313 356.2949  80.2962 14.16383223976160
SL-14 R/B               
1 16496U 86006B   24012.81036888  .00000857  00000+0  97240-4 0  9992
2 16496  82.5251 279.2395 0020481  65.2665   0.8679 14.85024797 32353
COSMOS 1743             
1 16719U 86034A   24012.89618652  .00010604  00000+0  42876-3 0  9999
2 16719  82.5490 153.5736 0009730 220.0970 139.9550 15.24557511 59308
SL-14 R/B               
1 16792U 86046B   24012.75129338  .00000833  00000+0  96573-4 0  9993
2 16792  82.4827 102.8079 0022623 308.5383  51.3804 14.84115069  9627
SL-14 R/B               
1 16882U 86055B   24012.91224125  .00000926  00000+0  10763-3 0  9990
2 16882  82.5222 145.3788 0020607  54.8970  67.7674 14.84132749  2600
AJISAI (EGS)            
1 16908U 86061A   24012.93786010 -.00000096  00000+0  80955-5 0  9995
2 16908  50.0114 352.5656 0011340  84.3547 313.6709 12.44503262370030
COSMOS 1812             
1 17295U 87003A   24012.94600159  .00015380  00000+0  57869-3 0  9999
2 17295  82.5107 293.9452 0005406  72.4901 287.6928 15.26999810 22647
SL-14 R/B               
1 17567U 87024B   24013.33805994  .00000884  00000+0  10154-3 0  9991
2 17567  82.5295 110.9031 0018353 346.6441  13.4286 14.84647422992547
COSMOS 1833             
1 17589U 87027A   24012.86502197  .00000080  00000+0  68452-4 0  9997
2 17589  70.9131 179.7768 0022831 298.2662  61.6155 14.12933501899165
SL-16 R/B               
1 17590U 87027B   24012.76064652 -.00000138  00000+0 -44850-4 0  9999
2 17590  71.0032 134.4499 0007301 251.2291 108.8041 14.16937013903902
SL-14 R/B               
1 17912U 87038B   24013.34046790  .00000926  00000+0  10840-3 0  9991
2 17912  82.5033 316.7015 0018309 239.2004 120.7410 14.83914326983632
COSMOS 1844             
1 17973U 87041A   24013.05334249  .00000352  00000+0  20851-3 0  9995
2 17973  70.8981 253.0520 0029281 125.9124 234.4722 14.14281449892556
SL-14 R/B               
1 18153U 87055B   24012.51029816  .00000815  00000+0  94285-4 0  9999
2 18153  82.4994  10.2205 0022912  93.6682 266.7154 14.84153357953128
COSMOS 1867             
1 18187U 87060A   24013.37024053  .00000054  00000+0  57905-4 0  9998
2 18187  65.0117 348.4010 0019019 280.7153  79.1789 14.31260051907610
COSMOS 1892             
1 18421U 87088A   24013.49252168  .00012476  00000+0  43327-3 0  9995
2 18421  82.4928  55.3874 0011884 181.1303 178.9912 15.29567863983056
SL-14 R/B               
1 18749U 88001B   24012.92787389  .00000708  00000+0  81958-4 0  9997
2 18749  82.5123 214.6878 0017633 321.6752  38.3209 14.84071037925268
COSMOS 1933             
1 18958U 88020A   24012.89314293  .00005501  00000+0  35142-3 0  9995
2 18958  82.5354 303.4741 0007984  52.6154 307.5800 15.08440426931272
SL-3 R/B                
1 19046U 88032B   24012.90014200  .00006256  00000+0  40414-3 0  9990
2 19046  97.4351 359.3322 0035112  76.0181 284.4948 15.08064535933048
SL-16 R/B               
1 19120U 88039B   24012.92116213 -.00000001  00000+0  22343-4 0  9994
2 19120  71.0151 291.8694 0019627 109.0419 251.2834 14.19369459846732
COSMOS 1953             
1 19210U 88050A   24013.06083176  .00006637  00000+0  37723-3 0  9991
2 19210  82.5117 219.8967 0015817 356.7116   3.4008 15.12626195939376
SL-8 R/B                
1 19257U 88053B   24012.77913091  .00000522  00000+0  18062-3 0  9992
2 19257  74.0481 121.9721 0019316 140.3412 333.4714 14.38026520863449
COSMOS 1975             
1 19573U 88093A   24012.94279203  .00007893  00000+0  45945-3 0  9994
2 19573  82.5260 177.2297 0016779  40.8740 319.3745 15.11772866921073
SL-14 R/B               
1 19574U 88093B   24013.53142251  .00000748  00000+0  86205-4 0  9990
2 19574  82.5302  59.2047 0022698 115.5237 359.4251 14.84191862905452
SL-16 R/B               
1 19650U 88102B   24012.97810224 -.00000206  00000+0 -80217-4 0  9993
2 19650  71.0001   6.5479 0012395 135.9455 224.2658 14.15935717815528
INTERCOSMOS 24          
1 20261U 89080A   24013.17137319  .00001508  00000+0  44935-3 0  9999
2 20261  82.6052 255.3647 1196875 315.4201  35.6423 12.57526092567449
SL-14 R/B               
1 20262U 89080C   24013.36276473  .00000296  00000+0  84211-4 0  9991
2 20262  82.5954 317.8242 1234264 180.9384 178.9387 12.49562022561478
DELTA 1 R/B             
1 20323U 89089B   24012.90256241  .00000863  00000+0  22811-3 0  9995
2 20323  97.0982 332.0371 0072310  84.6571 276.2871 14.49209272802249
ARIANE 40 R/B           
1 20443U 90005H   24012.76945531  .00000542  00000+0  19055-3 0  9999
2 20443  98.4154  81.5236 0011121  52.4000 307.8196 14.38750199779608
DELTA 2 R/B(1)          
1 20453U 90008B   24012.60326977  .00013233  00000+0  55984-3 0  9995
2 20453  35.6204  65.8063 0221265 117.9282 244.4026 15.03008625805906
COSMOS 2058             
1 20465U 90010A   24013.16827724  .00005548  00000+0  41999-3 0  9990
2 20465  82.4876  95.6390 0015439 114.6757 245.6077 15.02035495844909
SL-14 R/B               
1 20466U 90010B   24012.79850901  .00000835  00000+0  10147-3 0  9997
2 20466  82.5035 285.6666 0020804  15.5790 344.6060 14.82193978811862
SL-14 R/B               
1 20511U 90018B   24012.67762402  .00000989  00000+0  12496-3 0  9990
2 20511  82.5210 237.9957 0017509 154.4975 205.7106 14.80821353806053
HST                     
1 20580U 90037B   24013.24839067  .00007129  00000+0  35643-3 0  9995
2 20580  28.4699 308.0639 0002576 135.8471 349.0591 15.15518592653594
SL-16 R/B               
1 20625U 90046B   24012.84467126  .00000399  00000+0  23133-3 0  9996
2 20625  70.9987 150.1544 0012429  55.7220 304.5077 14.14795832737092
COSMOS 2084             
1 20663U 90055A   24013.47740332  .00004943  00000+0  38029-3 0  9990
2 20663  62.7918 121.3294 0125416 105.5338 255.9646 14.96968189818250
SL-6 R/B(2)             
1 20666U 90055D   24013.15522837  .00002927  00000+0  24336-3 0  9992
2 20666  62.7846  36.0757 0106110 127.4528 233.6279 14.96822698819635
SL-8 R/B                
1 20775U 90078B   24012.62447484  .00011419  00000+0  46999-3 0  9998
2 20775  82.9153 220.2328 0493621  75.2113 290.3224 14.54799059693513
SL-8 R/B                
1 21088U 91006B   24013.14214322  .00000176  00000+0  16163-3 0  9997
2 21088  82.9411  35.1041 0023949  79.0017 344.4151 13.77306457656069
OKEAN-3                 
1 21397U 91039A   24013.08794764  .00004432  00000+0  38293-3 0  9999
2 21397  82.5197  14.4662 0018400 113.5897 246.7260 14.96883578768115
COSMOS 2151             
1 21422U 91042A   24013.39496619  .00003184  00000+0  28912-3 0  9994
2 21422  82.5006 119.0826 0013669 183.7310 176.3812 14.94917726766657
SL-14 R/B               
1 21423U 91042B   24013.11759762  .00000635  00000+0  79719-4 0  9996
2 21423  82.4922 237.1132 0016276 307.3338  52.6392 14.80545036757674
ERS-1                   
1 21574U 91050A   24012.91157718  .00000522  00000+0  18549-3 0  9990
2 21574  98.7653   1.2037 0033006  16.5524 343.6732 14.38347493702583
ARIANE 40 R/B           
1 21610U 91050F   24012.79496675  .00000628  00000+0  20598-3 0  9999
2 21610  98.3127  79.0856 0002126 307.0153  53.0842 14.41646049705561
INTERCOSMOS 25          
1 21819U 91086A   24012.58804383  .00002512  00000+0  49850-3 0  9991
2 21819  82.6042  64.4795 1503989   8.8346 353.6273 12.08094049401500
SL-8 R/B                
1 21876U 92008B   24013.46291872  .00000108  00000+0  95672-4 0  9993
2 21876  82.9284 132.4010 0035194 168.4938 264.2523 13.75786925601533
SL-8 R/B                
1 21938U 92020B   24012.97401958  .00000001  00000+0 -14206-4 0  9996
2 21938  82.9292  18.0089 0028648 336.2917  84.0495 13.75387580592982
COSMOS 2219             
1 22219U 92076A   24012.98729862  .00000059  00000+0  55937-4 0  9996
2 22219  71.0572 222.3218 0019356 316.7256  43.2345 14.13809992607509
SL-16 R/B               
1 22220U 92076B   24012.52950701 -.00000106  00000+0 -29253-4 0  9993
2 22220  71.0000  46.2198 0014434 223.0116 244.4247 14.16615414610343
COSMOS 2221             
1 22236U 92080A   24013.32435165  .00003319  00000+0  33428-3 0  9991
2 22236  82.5085 309.1433 0014512 311.4199  48.5772 14.90820622684453
SL-16 R/B               
1 22285U 92093B   24012.98259987 -.00000212  00000+0 -84642-4 0  9992
2 22285  71.0198 215.4999 0002281  41.8760 318.2537 14.15216986602162
COSMOS 2228             
1 22286U 92094A   24012.77475656  .00003237  00000+0  32182-3 0  9993
2 22286  82.5193 267.3897 0021676  63.9929 296.3519 14.91224103658531
SL-16 R/B               
1 22566U 93016B   24012.59607936  .00000097  00000+0  74275-4 0  9998
2 22566  71.0083  68.0550 0007917  77.6614 282.5395 14.15101210590825
COSMOS 2242             
1 22626U 93024A   24012.84381754  .00003343  00000+0  33506-3 0  9997
2 22626  82.5223 296.0655 0019820  65.3624 294.9657 14.90939583662918
SL-16 R/B               
1 22803U 93059B   24012.93012895  .00000220  00000+0  13312-3 0  9993
2 22803  70.9883 229.9560 0018416 322.7954  37.1892 14.16983667568074
ARIANE 40 R/B           
1 22830U 93061H   24013.18862265  .00000421  00000+0  17330-3 0  9995
2 22830  98.5926  82.5366 0011917  89.0753 271.1796 14.31961686581751
COSMOS 2278             
1 23087U 94023A   24013.41865726  .00000238  00000+0  14987-3 0  9991
2 23087  71.0527  19.7163 0008184 163.9638 196.1745 14.14028365533893
SL-16 R/B               
1 23088U 94023B   24013.14797384  .00000211  00000+0  13416-3 0  9993
2 23088  70.9992 282.4592 0001881  12.8596 347.2574 14.14806751535103
SL-16 R/B               
1 23343U 94074B   24012.74566956  .00000823  00000+0  12153-3 0  9993
2 23343  97.8119  60.6980 0005394 256.5479 219.5344 14.77792523570951
SL-16 R/B               
1 23405U 94077B   24012.94011687  .00000125  00000+0  88626-4 0  9997
2 23405  70.9806 207.4063 0004771 273.6795  86.3782 14.15352830504900
ERS-2                   
1 23560U 95021A   24013.48861970  .00231528  00000+0  14454-2 0  9996
2 23560  98.5194  22.5567 0003569  98.4062 261.7605 15.76205500541854
ARIANE 40+ R/B          
1 23561U 95021B   24013.13766847  .00000546  00000+0  19262-3 0  9993
2 23561  98.5491  80.4044 0006372 343.2935  78.6372 14.38666804506327
SL-16 R/B               
1 23705U 95058B   24013.12143749 -.00000132  00000+0 -43470-4 0  9994
2 23705  71.0224  31.3898 0014743 243.7410 116.2199 14.15280708456850
SL-16 R/B               
1 24298U 96051B   24013.14324568 -.00000129  00000+0 -43417-4 0  9995
2 24298  70.8178  38.2372 0017562 222.0873 137.8899 14.12507853410846
ORBVIEW 2 (SEASTAR)     
1 24883U 97037A   24013.38644722  .00000687  00000+0  26060-3 0  9994
2 24883  98.7501 151.1350 0001905 190.8887 169.2256 14.34317505395965
SL-16 R/B               
1 25400U 98043G   24013.46211656  .00000157  00000+0  84963-4 0  9992
2 25400  98.7299 315.0329 0010600 132.6506 227.5569 14.25686837327176
SL-16 R/B               
1 25407U 98045B   24013.44206486  .00000311  00000+0  18201-3 0  9997
2 25407  71.0114  34.7614 0006352 161.5877 198.5478 14.15964426316060
ISS (ZARYA)             
1 25544U 98067A   24013.46878904  .00061640  00000+0  11034-2 0  9993
2 25544  51.6419   6.9213 0004859  85.9357  50.2079 15.49372261434400
CZ-4B R/B               
1 25732U 99025C   24012.76187855  .00000152  00000+0  95154-4 0  9995
2 25732  98.7763  59.9245 0038308  84.5147  25.1687 14.17905103276630
OKEAN-O                 
1 25860U 99039A   24012.72058070  .00001207  00000+0  17443-3 0  9990
2 25860  98.0610  65.2075 0001471  69.2760 290.8608 14.78016327318043
SL-16 R/B               
1 25861U 99039B   24012.91053617  .00001008  00000+0  14117-3 0  9998
2 25861  98.1125  57.5633 0014053 284.9745  74.9910 14.79741514320425
DELTA 2 R/B             
1 25876U 99041E   24012.78115904  .00003496  00000+0  61801-3 0  9995
2 25876  51.7615 194.4271 0520874 193.2090 165.4747 14.07298828252027
HELIOS 1B               
1 25977U 99064A   24013.49990852  .00001517  00000+0  18957-3 0  9990
2 25977  98.2660 239.7774 0002466  89.6138 270.5357 14.83903292299825
TERRA                   
1 25994U 99068A   24013.49183297  .00000873  00000+0  19319-3 0  9997
2 25994  98.0705  81.4305 0002967 115.0515  12.3223 14.59532056280455
SL-16 R/B               
1 26070U 00006B   24013.25434147 -.00000124  00000+0 -38877-4 0  9996
2 26070  71.0034 311.1738 0018933 295.1306  64.7852 14.15597400237231
TITAN 4B R/B            
1 26474U 00047B   24012.97225470  .00004982  00000+0  39240-3 0  9992
2 26474  67.9936  77.9880 0052119 206.2872 153.5627 15.00554892274594
ENVISAT                 
1 27386U 02009A   24013.50724899  .00000280  00000+0  10545-3 0  9998
2 27386  98.2612 340.2046 0001103  85.4174  24.4020 14.38480173146191
IDEFIX & ARIANE 42P R/B 
1 27422U 02021B   24012.84028491  .00000593  00000+0  24680-3 0  9996
2 27422  98.5140 313.8035 0011975 349.9762  10.1180 14.29921173131524
AQUA                    
1 27424U 02022A   24013.43633503  .00001781  00000+0  39150-3 0  9999
2 27424  98.3130 322.4666 0000644 100.1977  10.1057 14.58747849154004
CZ-4B R/B               
1 27432U 02024C   24013.09511062  .00000107  00000+0  78387-4 0  9994
2 27432  98.9986  54.4931 0051275  92.8758 322.9764 14.14272768118122
MIDORI II (ADEOS-II)    
1 27597U 02056A   24012.81512904  .00000620  00000+0  26713-3 0  9991
2 27597  98.6746 320.3251 0001765 105.8457 254.2919 14.28153900 97930
H-2A R/B                
1 27601U 02056E   24012.99942312  .00000730  00000+0  27595-3 0  9997
2 27601  98.2131 357.9880 0071337 348.3285  78.5076 14.32604134101403
CZ-4B R/B               
1 28059U 03049C   24013.48646441  .00000750  00000+0  18868-3 0  9992
2 28059  98.5899 331.6973 0050418 110.7995 249.8612 14.53496210 72305
CZ-2C R/B               
1 28222U 04012C   24012.94711788  .00012192  00000+0  53082-3 0  9992
2 28222  97.8078  19.5362 0035602 232.5979 127.2013 15.21802262 83305
SL-16 R/B               
1 28353U 04021B   24013.22053918  .00000405  00000+0  23669-3 0  9995
2 28353  71.0014  82.6834 0004557 179.2252 180.8878 14.14376279 11620
CZ-4B R/B               
1 28415U 04035C   24013.07664371  .00006184  00000+0  34234-3 0  9993
2 28415  97.4442  50.3034 0044130 202.2482 157.6836 15.13351237 60338
CZ-2C R/B               
1 28480U 04046B   24012.86005566  .00000609  00000+0  24487-3 0  9993
2 28480  98.1432 327.7455 0140319 322.1413  36.9963 14.26211910996308
ARIANE 5 R/B            
1 28499U 04049H   24012.85346631  .00001269  00000+0  15672-3 0  9995
2 28499  98.1600 147.5087 0089516  19.3027 341.1540 14.81955644 29119
CZ-2D R/B               
1 28738U 05024B   24013.45885682  .00011671  00000+0  51270-3 0  9998
2 28738  97.3605  14.7974 0008968 346.0124  14.0863 15.22038492 18954
SUZAKU (ASTRO-EII)      
1 28773U 05025A   24013.47258354  .00027079  00000+0  73439-3 0  9990
2 28773  31.3902 108.4882 0003686 117.8796 242.2230 15.36428644 22978
ALOS (DAICHI)           
1 28931U 06002A   24013.47167460  .00002474  00000+0  47052-3 0  9993
2 28931  98.0179 330.1467 0000645  54.7089 305.4174 14.64977358958540
H-2A R/B                
1 28932U 06002B   24012.80857343  .00006123  00000+0  48230-3 0  9990
2 28932  98.2202  95.9191 0078707 359.9148   0.2046 14.98754257975893
RESURS-DK 1             
1 29228U 06021A   24013.40589011  .00003682  00000+0  25784-3 0  9997
2 29228  69.9359 100.9357 0007637 265.2814  94.7476 15.06131238968888
GENESIS 1               
1 29252U 06029A   24012.84968323  .00018718  00000+0  60164-3 0  9993
2 29252  64.5196 331.1983 0005014 319.3731  40.7024 15.32345135966581
CZ-4B R/B               
1 29507U 06046C   24012.82511654  .00004932  00000+0  33659-3 0  9996
2 29507  97.6646  49.8269 0043623  89.6940 270.9285 15.05883105941176
CZ-2C R/B               
1 31114U 07010B   24013.36425589  .00000257  00000+0  13780-3 0  9995
2 31114  98.3057 158.7658 0060460  62.7137 298.0181 14.19690388868130
COSMO-SKYMED 1          
1 31598U 07023A   24013.45676132  .00001067  00000+0  14056-3 0  9994
2 31598  97.8856 198.8981 0001222  96.4438 263.6914 14.82155355898135
GENESIS 2               
1 31789U 07028A   24013.19323472  .00016613  00000+0  54492-3 0  9999
2 31789  64.4929  14.9884 0040183 234.2533 125.4857 15.30983711913559
COSMOS 2428             
1 31792U 07029A   24013.49428583  .00000403  00000+0  24330-3 0  9994
2 31792  70.9435  53.4009 0012459 265.0698  94.9001 14.12663954853134
SL-16 R/B               
1 31793U 07029B   24013.17175948 -.00000057  00000+0 -47333-5 0  9991
2 31793  70.9750  25.4048 0002032 264.6666 165.2736 14.14581336854226
KORONAS-FOTON           
1 33504U 09003A   24013.40667631  .00009740  00000+0  40618-3 0  9991
2 33504  82.4389   0.0820 0018488  71.6826 288.6420 15.23390697825415
CZ-2C R/B               
1 37731U 11030B   24012.92773174  .00002771  00000+0  39066-3 0  9998
2 37731  97.7432 342.7886 0057870  28.4281  36.1080 14.76877579673785
H-2A R/B                
1 38341U 12025E   24013.33182747  .00004667  00000+0  51107-3 0  9993
2 38341  98.4347 275.1454 0051942 354.5090   5.5548 14.87341888631099
CUSAT 2 & FALCON 9 R/B  
1 39271U 13055G   24012.74590025  .00048685 -51857-6  70168-3 0  9996
2 39271  80.9405 265.4952 0373687 104.1450 260.1589 15.03322453541731
SHIJIAN-16 (SJ-16)      
1 39358U 13057A   24013.43963212  .00001382  00000+0  15311-3 0  9991
2 39358  74.9716 228.9721 0018996 215.4524 144.5401 14.88014524554449
CZ-2C R/B               
1 39364U 13059B   24012.71001693  .00055739  00000+0  72416-3 0  9990
2 39364  97.0713  61.1770 0024678  47.3268 313.0063 15.58263867568638
SL-4 R/B                
1 39679U 14021B   24013.34567068  .00014211  00000+0  56376-3 0  9999
2 39679  51.6097 145.1951 0144730 167.6818 192.7755 15.16448281536411
ALOS-2                  
1 39766U 14029A   24013.41938448  .00001044  00000+0  14662-3 0  9998
2 39766  97.9213 112.3052 0001435 101.4227 258.7146 14.79464339520648
SL-27 R/B               
1 40354U 14084B   24012.89966717  .00028620  00000+0  32277-3 0  9996
2 40354  74.7279 187.2867 0022759  76.6265 283.7494 15.62047847509645
YAOGAN-29               
1 41038U 15069A   24013.50777355  .00000885  00000+0  11991-3 0  9990
2 41038  98.0608  26.9848 0002846  51.7240 308.4228 14.81442336439419
ASTRO-H (HITOMI)        
1 41337U 16012A   24012.41299479  .00004038  00000+0  29053-3 0  9998
2 41337  31.0046   9.1189 0010980  15.3500 344.7468 15.02483131433413
HXMT (HUIYAN)           
1 42758U 17034A   24013.50566273  .00009575  00000+0  51397-3 0  9998
2 42758  43.0155  57.0669 0003387 277.9327  82.1136 15.15077387363239
CZ-2C R/B               
1 43521U 18054D   24012.43318152  .00012860  00000+0  50182-3 0  9994
2 43521  35.1521  24.5919 0063953 157.9070 202.4423 15.23196871306918
SAOCOM 1A               
1 43641U 18076A   24013.46513857  .00000924  00000+0  12260-3 0  9997
2 43641  97.8850 201.9269 0001582  87.4862 272.6532 14.82155125284901
H-2A R/B                
1 43682U 18084L   24012.76420242  .00008854  00000+0  51229-3 0  9996
2 43682  98.8693  75.1015 0047821 169.1978 191.0287 15.11579447285849
SAOCOM 1B               
1 46265U 20059A   24013.49635020  .00000854  00000+0  11388-3 0  9998
2 46265  97.8855 201.0436 0001413  90.1005 270.0370 14.82147178182303
CSS (TIANHE)            
1 48274U 21035A   24013.29597140  .00045535  00000+0  49210-3 0  9993
2 48274  41.4699 315.4730 0004614 104.5678 255.5673 15.62791630154697
COSMOS 2550             
1 48865U 21056A   24013.44006898 -.00000079  00000+0  34184-5 0  9995
2 48865  67.1404 259.5010 0008385 269.6707  90.3487 15.33837679142895
2022-019U               
1 51842U 22019U   24013.44517051  .00051035  00000+0  92671-3 0  9992
2 51842  97.5182 111.2736 0039743 307.3198  52.4433 15.48517738104838
CZ-2C R/B               
1 52794U 22058K   24012.92052966  .00008675  00000+0  38290-3 0  9992
2 52794  50.1719 285.5628 0087718 220.7882 138.6485 15.19085968 89338
CZ-2C R/B               
1 53131U 22082D   24012.89253522  .00072825  00000+0  63303-3 0  9993
2 53131  97.3275  39.1509 0022546 174.7175 185.4329 15.68505912 84417
XRISM                   
1 57800U 23137A   24012.93325723  .00006106  00000+0  48267-3 0  9991
2 57800  31.0039 285.6579 0009593 101.1251 259.0463 14.99213704 19129
