NOAA 15                 
1 25338U 98030A   24013.45564687  .00000294  00000+0  13981-3 0  9995
2 25338  98.5862  43.7122 0011254  62.9387 297.2940 14.26470742335234
DMSP 5D-3 F16 (USA 172) 
1 28054U 03048A   24013.49241590  .00000265  00000+0  16379-3 0  9999
2 28054  99.0200  18.5150 0007984 129.1280  24.2665 14.13927697 44273
NOAA 18                 
1 28654U 05018A   24013.44200595  .00000354  00000+0  21312-3 0  9991
2 28654  98.8907  91.6277 0014960 142.3306 217.8917 14.13098620961262
METEOSAT-9 (MSG-2)      
1 28912U 05049B   24012.80665304  .00000132  00000+0  00000+0 0  9995
2 28912   7.3266  62.1611 0000272 215.2750 170.4185  1.00270097 66169
EWS-G1 (GOES 13)        
1 29155U 06018A   24013.05257575 -.00000283  00000+0  00000+0 0  9995
2 29155   2.2175  87.1537 0087709 248.3756 305.1099  0.99158150 64610
DMSP 5D-3 F17 (USA 191) 
1 29522U 06050A   24013.48891850  .00000298  00000+0  17817-3 0  9999
2 29522  98.7489  27.2528 0010830  66.4014 293.8296 14.14371489887189
FENGYUN 3A              
1 32958U 08026A   24013.48857762  .00000284  00000+0  15659-3 0  9992
2 32958  98.5853 325.2871 0008999 155.3259 204.8349 14.18993483809883
FENGYUN 2E              
1 33463U 08066A   24013.10130545 -.00000200  00000+0  00000+0 0  9999
2 33463   7.1945  61.4705 0001122 291.5714 242.1376  1.00275685 55206
NOAA 19                 
1 33591U 09005A   24013.44278485  .00000308  00000+0  19003-3 0  9993
2 33591  99.0719  67.4382 0013969  15.2437 344.9153 14.12904799769634
GOES 14                 
1 35491U 09033A   24013.11597166 -.00000057  00000+0  00000+0 0  9994
2 35491   0.0871 235.1323 0000203 113.0247  57.1100  1.00271688 53276
DMSP 5D-3 F18 (USA 210) 
1 35951U 09057A   24013.45379257  .00000451  00000+0  26033-3 0  9992
2 35951  98.7953 351.0721 0010119 249.1225 110.8865 14.13963274734353
EWS-G2 (GOES 15)        
1 36411U 10008A   24012.88149264  .00000045  00000+0  00000+0 0  9992
2 36411   0.0937 263.5074 0005661   1.5946 225.6155  1.00275833 50758
COMS 1                  
1 36744U 10032A   24012.96640873 -.00000337  00000+0  00000+0 0  9994
2 36744   2.5356  86.8120 0000723 201.6961 299.5175  1.00269367 49767
FENGYUN 3B              
1 37214U 10059A   24013.52600035  .00000165  00000+0  10991-3 0  9997
2 37214  99.0711  39.3271 0022374 170.0629 305.9523 14.14429348682243
SUOMI NPP               
1 37849U 11061A   24013.48353360  .00000190  00000+0  11102-3 0  9999
2 37849  98.7269 313.8153 0001304  65.6149 294.5163 14.19541491632771
FENGYUN 2F              
1 38049U 12002A   24013.03482005 -.00000352  00000+0  00000+0 0  9990
2 38049   5.2053  74.6786 0001841  35.6066 126.4169  1.00274140 44005
METEOSAT-10 (MSG-3)     
1 38552U 12035B   24013.15569465  .00000000  00000+0  00000+0 0  9993
2 38552   2.6190  59.4789 0000831 233.4300 235.2809  1.00272691 42331
METOP-B                 
1 38771U 12049A   24013.40434411  .00000246  00000+0  13210-3 0  9994
2 38771  98.6518  73.9569 0001690 106.0654 254.0709 14.21452400587417
FENGYUN 3C              
1 39260U 13052A   24013.51874450  .00000172  00000+0  10732-3 0  9990
2 39260  98.4268  21.4043 0012067  59.4077 300.8287 14.16131300533291
METEOR-M 2              
1 40069U 14037A   24013.47979218  .00000232  00000+0  12651-3 0  9995
2 40069  98.4298  14.7456 0006922  90.8793 269.3178 14.20870655493519
HIMAWARI-8              
1 40267U 14060A   24013.51993113 -.00000268  00000+0  00000+0 0  9997
2 40267   0.0097 257.8220 0000831  26.9519 155.5409  1.00272194 33985
FENGYUN 2G              
1 40367U 14090A   24013.46210187 -.00000298  00000+0  00000+0 0  9991
2 40367   3.3910  83.3404 0000950  17.4570 277.8112  1.00271206 33157
METEOSAT-11 (MSG-4)     
1 40732U 15034A   24013.08598942  .00000070  00000+0  00000+0 0  9999
2 40732   1.0172  63.4209 0002680 199.2476 249.7872  1.00265011 31129
ELEKTRO-L 2             
1 41105U 15074A   24013.43930191 -.00000112  00000+0  00000+0 0  9991
2 41105   4.4436  81.3498 0003285 193.6307 341.1200  1.00270928 29634
HIMAWARI-9              
1 41836U 16064A   24013.51971611 -.00000268  00000+0  00000+0 0  9995
2 41836   0.0147  68.2122 0000581 235.4549 136.6819  1.00270312 26427
GOES 16                 
1 41866U 16071A   24013.52202076 -.00000241  00000+0  00000+0 0  9990
2 41866   0.0757 249.4474 0001090  84.3375 251.4094  1.00269624 26216
FENGYUN 4A              
1 41882U 16077A   24013.46297211 -.00000322  00000+0  00000+0 0  9992
2 41882   0.0695  55.4954 0005332 352.3098 335.7996  1.00275752 26100
CYGFM05                 
1 41884U 16078A   24012.90081294  .00009591  00000+0  39181-3 0  9997
2 41884  34.9512 207.8261 0012585 219.3562 140.6238 15.23546637392208
CYGFM04                 
1 41885U 16078B   24012.84630990  .00010040  00000+0  40050-3 0  9992
2 41885  34.9449 193.6317 0011689 241.8308 118.1226 15.24344084392439
CYGFM02                 
1 41886U 16078C   24012.89303396  .00010642  00000+0  42386-3 0  9997
2 41886  34.9549 195.8076 0011705 232.5764 127.3885 15.24388712392360
CYGFM01                 
1 41887U 16078D   24012.98556722  .00009771  00000+0  40216-3 0  9992
2 41887  34.9483 210.7516 0012840 218.0350 141.9458 15.23288415392271
CYGFM08                 
1 41888U 16078E   24012.95992053  .00009975  00000+0  40244-3 0  9998
2 41888  34.9453 200.4107 0012071 233.7456 126.2143 15.23961011392343
CYGFM07                 
1 41890U 16078G   24012.91166244  .00010226  00000+0  40681-3 0  9998
2 41890  34.9472 192.7396 0011273 240.1003 119.8592 15.24436706392449
CYGFM03                 
1 41891U 16078H   24012.87397263  .00010757  00000+0  42873-3 0  9995
2 41891  34.9506 194.0224 0010106 235.7526 124.2232 15.24380105392270
FENGYUN 3D              
1 43010U 17072A   24013.43910553  .00000197  00000+0  11527-3 0  9990
2 43010  98.8908 327.3678 0002501  71.1130 289.0317 14.19266193319329
NOAA 20                 
1 43013U 17073A   24013.44798028  .00000172  00000+0  10228-3 0  9996
2 43013  98.7348 313.7323 0000566  90.3557 269.7684 14.19561283318802
GOES 17                 
1 43226U 18022A   24013.51812648 -.00000084  00000+0  00000+0 0  9996
2 43226   0.0476 210.4635 0001566  60.6169 283.2550  1.00270771 21556
FENGYUN 2H              
1 43491U 18050A   24013.45801181 -.00000123  00000+0  00000+0 0  9998
2 43491   0.7395  88.3297 0000779   4.1008 264.2813  1.00271576 20636
METOP-C                 
1 43689U 18087A   24013.44200188  .00000244  00000+0  13133-3 0  9994
2 43689  98.7038  74.8146 0003059 149.1744 210.9613 14.21493626268998
GEO-KOMPSAT-2A          
1 43823U 18100A   24013.51538174 -.00000337  00000+0  00000+0 0  9996
2 43823   0.0368 146.5740 0000602 272.7948   6.8997  1.00270382 18789
METEOR-M2 2             
1 44387U 19038A   24013.50047091  .00000098  00000+0  62577-4 0  9990
2 44387  98.8064 342.2930 0002248  66.8539 293.2876 14.23841440235232
ARKTIKA-M 1             
1 47719U 21016A   24009.73862474  .00000217  00000+0  00000+0 0  9992
2 47719  63.1441 169.7708 6898746 269.1052  18.1373  2.00602106 20945
FENGYUN 3E              
1 49008U 21062A   24013.45647534  .00000048  00000+0  43224-4 0  9990
2 49008  98.7290  16.8536 0002539 107.8894 252.2559 14.19721768130890
GOES 18                 
1 51850U 22021A   24013.41493552  .00000104  00000+0  00000+0 0  9992
2 51850   0.0120 274.9948 0000358 309.5262 260.2341  1.00271556  6922
NOAA 21 (JPSS-2)        
1 54234U 22150A   24013.46472056  .00000203  00000+0  11702-3 0  9990
2 54234  98.7383 313.3045 0000967 107.0452 253.0830 14.19558590 60888
METEOSAT-12 (MTG-I1)    
1 54743U 22170C   24013.22340986 -.00000024  00000+0  00000+0 0  9994
2 54743   0.3943 352.7483 0001491 266.5560 289.7495  1.00271525  4080
TIANMU-1 03             
1 55973U 23039A   24013.44317196  .00011113  00000+0  47995-3 0  9994
2 55973  97.4483 164.8930 0011993 298.0091  61.9931 15.22604819 45139
TIANMU-1 04             
1 55974U 23039B   24013.42505620  .00011616  00000+0  50171-3 0  9992
2 55974  97.4406 164.6029 0008929 299.0173  61.0169 15.22619821 45121
TIANMU-1 05             
1 55975U 23039C   24013.47611169  .00010972  00000+0  47472-3 0  9998
2 55975  97.4455 164.8762 0004875 292.8167  67.2554 15.22599201 45127
TIANMU-1 06             
1 55976U 23039D   24013.46031213  .00010384  00000+0  44957-3 0  9996
2 55976  97.4467 164.9481 0004379 296.0282  64.0503 15.22595284 45129
METEOR-M2 3             
1 57166U 23091A   24013.46665957  .00000057  00000+0  44058-4 0  9994
2 57166  98.7375  69.3634 0003471 207.5803 152.5192 14.23865213 28467
TIANMU-1 07             
1 57399U 23101A   24013.45881143  .00006966  00000+0  37634-3 0  9996
2 57399  97.3866  75.0483 0005258  27.6429 332.5082 15.15000379 26845
TIANMU-1 08             
1 57400U 23101B   24013.49319494  .00006599  00000+0  35665-3 0  9992
2 57400  97.3857  74.9790 0007795  24.8224 335.3382 15.14990876 26839
TIANMU-1 09             
1 57401U 23101C   24013.40856252  .00006225  00000+0  33665-3 0  9996
2 57401  97.3811  74.8344 0007915  19.8668 340.2871 15.14993323 26821
TIANMU-1 10             
1 57402U 23101D   24013.44078657  .00007148  00000+0  38502-3 0  9996
2 57402  97.3892  74.9775 0010495  18.4701 341.6910 15.15063451 26820
FENGYUN 3F              
1 57490U 23111A   24013.41620200  .00000172  00000+0  10224-3 0  9999
2 57490  98.7906  83.8592 0001446 131.7876 228.3424 14.19753837 23164
TIANMU-1 11             
1 58645U 23205A   24013.45237898  .00005673  00000+0  31768-3 0  9994
2 58645  97.4192  42.5659 0010744 203.6247 156.4493 15.13765508  2941
TIANMU-1 12             
1 58646U 23205B   24013.45476078  .00005730  00000+0  32199-3 0  9993
2 58646  97.4177  42.5590 0010061 200.6176 159.4651 15.13642389  2938
TIANMU-1 13             
1 58647U 23205C   24013.45885019  .00005255  00000+0  30051-3 0  9990
2 58647  97.4208  42.5616 0010054 191.6644 168.4356 15.13052525  2933
TIANMU-1 14             
1 58648U 23205D   24013.45522979  .00005684  00000+0  31963-3 0  9993
2 58648  97.4133  42.5465 0010532 195.9757 164.1144 15.13616257  2932
TIANMU-1 19             
1 58660U 23208A   24013.31683424  .00014270  00000+0  79131-3 0  9998
2 58660  97.4009 129.9898 0010948 189.5180 170.5846 15.13829915  2586
TIANMU-1 20             
1 58661U 23208B   24013.44666066  .00007948  00000+0  43969-3 0  9990
2 58661  97.3932 130.1031 0010759 193.8710 166.2228 15.14072540  2605
TIANMU-1 21             
1 58662U 23208C   24013.44553771  .00008375  00000+0  46183-3 0  9995
2 58662  97.3978 130.1153 0009860 194.2206 165.8750 15.14177929  2609
TIANMU-1 22             
1 58663U 23208D   24013.44185625  .00007935  00000+0  43386-3 0  9998
2 58663  97.3992 130.1234 0010216 203.4797 156.5970 15.14497499  2609
TIANMU-1 15             
1 58700U 24004A   24013.51398224  .00007774  00000+0  43494-3 0  9995
2 58700  97.4560 197.7281 0010346 226.3948 133.6426 15.13687359  1213
TIANMU-1 16             
1 58701U 24004B   24013.51212328  .00007765  00000+0  42872-3 0  9995
2 58701  97.4486 197.7220 0010532 233.2416 126.7850 15.14159413  1218
TIANMU-1 17             
1 58702U 24004C   24013.44529665  .00007721  00000+0  42457-3 0  9994
2 58702  97.4531 197.6634 0009877 235.8528 124.1767 15.14310543  1199
TIANMU-1 18             
1 58703U 24004D   24013.50931227  .00007505  00000+0  40818-3 0  9992
2 58703  97.4546 197.7325 0010553 245.5343 114.4789 15.14706620  1203
